{
    "links": {
        "self": "http://www.neowsapp.com/rest/v1/neo/3986678?api_key=iIulBulltgU6a56xZRHN4H3l9WmuAYTsLGpBGhQ2"
    },
    "id": "3986678",
    "neo_reference_id": "3986678",
    "name": "(2020 AJ3)",
    "designation": "2020 AJ3",
    "nasa_jpl_url": "http://ssd.jpl.nasa.gov/sbdb.cgi?sstr=3986678",
    "absolute_magnitude_h": 25.715,
    "estimated_diameter": {
        "kilometers": {
            "estimated_diameter_min": 0.0191229538,
            "estimated_diameter_max": 0.0427602247
        },
        "meters": {
            "estimated_diameter_min": 19.1229538353,
            "estimated_diameter_max": 42.7602247064
        },
        "miles": {
            "estimated_diameter_min": 0.0118824489,
            "estimated_diameter_max": 0.0265699636
        },
        "feet": {
            "estimated_diameter_min": 62.7393518611,
            "estimated_diameter_max": 140.2894556258
        }
    },
    "is_potentially_hazardous_asteroid": false,
    "close_approach_data": [
        {
            "close_approach_date": "2020-01-12",
            "close_approach_date_full": "2020-Jan-12 19:56",
            "epoch_date_close_approach": 1578858960000,
            "relative_velocity": {
                "kilometers_per_second": "10.614005298",
                "kilometers_per_hour": "38210.4190727806",
                "miles_per_hour": "23742.4684510841"
            },
            "miss_distance": {
                "astronomical": "0.0478128243",
                "lunar": "18.5991886527",
                "kilometers": "7152696.673964241",
                "miles": "4444479.6199428858"
            },
            "orbiting_body": "Earth"
        }
    ],
    "orbital_data": {
        "orbit_id": "4",
        "orbit_determination_date": "2020-02-09 04:52:58",
        "first_observation_date": "2020-01-14",
        "last_observation_date": "2020-01-19",
        "data_arc_in_days": 5,
        "observations_used": 43,
        "orbit_uncertainty": "8",
        "minimum_orbit_intersection": ".0474825",
        "jupiter_tisserand_invariant": "3.144",
        "epoch_osculation": "2458864.5",
        "eccentricity": ".5958468586060955",
        "semi_major_axis": "2.533582719855045",
        "inclination": "13.47533730617254",
        "ascending_node_longitude": "113.9354248759993",
        "orbital_period": "1472.994276402529",
        "perihelion_distance": "1.023955415210729",
        "perihelion_argument": "347.4720963530648",
        "aphelion_distance": "4.043210024499361",
        "perihelion_time": "2458852.965593144933",
        "mean_anomaly": "2.819010592468444",
        "mean_motion": ".2444001349952441",
        "equinox": "J2000",
        "orbit_class": {
            "orbit_class_type": "AMO",
            "orbit_class_description": "Near-Earth asteroid orbits similar to that of 1221 Amor",
            "orbit_class_range": "1.017 AU < q (perihelion) < 1.3 AU"
        }
    },
    "is_sentry_object": false
}